{"type": "FeatureCollection", "features": [{"type": "Feature", "properties": {"norad_id": 28054, "name": "DMSP 5D-3 F16 (USA 172)", "group": "weather", "lat": 64.36184875348826, "lon": -141.570851075065, "alt_km": 842.1497544925933, "timestamp": "2025-12-27T13:34:48.932485+00:00", "meta": {"OBJECT_NAME": "DMSP 5D-3 F16 (USA 172)", "OBJECT_ID": "2003-048A", "EPOCH": "2025-12-27T08:00:07.920864", "MEAN_MOTION": 14.14429316, "ECCENTRICITY": 0.00062447, "INCLINATION": 99.0037, "RA_OF_ASC_NODE": 18.9045, "ARG_OF_PERICENTER": 273.959, "MEAN_ANOMALY": 97.3189, "EPHEMERIS_TYPE": 0, "CLASSIFICATION_TYPE": "U", "NORAD_CAT_ID": 28054, "ELEMENT_SET_NO": 999, "REV_AT_EPOCH": 14519, "BSTAR": 9.6194482e-05, "MEAN_MOTION_DOT": 1.39e-06, "MEAN_MOTION_DDOT": 0}, "tle": {"line1": "1 28054U 03048A   25361.33342501  .00000139  00000+0  96194-4 0  9997", "line2": "2 28054  99.0037  18.9045 0006244 273.9590  97.3189 14.14429316145199"}}, "geometry": {"type": "Point", "coordinates": [-141.570851075065, 64.36184875348826]}}, {"type": "Feature", "properties": {"norad_id": 28912, "name": "METEOSAT-9 (MSG-2)", "group": "weather", "lat": -8.47707605396628, "lon": -14.89856963349798, "alt_km": 35487.24434106831, "timestamp": "2025-12-27T13:34:48.932532+00:00", "meta": {"OBJECT_NAME": "METEOSAT-9 (MSG-2)", "OBJECT_ID": "2005-049B", "EPOCH": "2025-12-24T18:27:10.310976", "MEAN_MOTION": 1.00268275, "ECCENTRICITY": 0.00719695, "INCLINATION": 8.9553, "RA_OF_ASC_NODE": 55.846, "ARG_OF_PERICENTER": 282.2974, "MEAN_ANOMALY": 77.0088, "EPHEMERIS_TYPE": 0, "CLASSIFICATION_TYPE": "U", "NORAD_CAT_ID": 28912, "ELEMENT_SET_NO": 999, "REV_AT_EPOCH": 524, "BSTAR": 0, "MEAN_MOTION_DOT": 1.45e-06, "MEAN_MOTION_DDOT": 0}, "tle": {"line1": "1 28912U 05049B   25358.76886934  .00000145  00000+0  00000+0 0  9992", "line2": "2 28912   8.9553  55.8460 0071969 282.2974  77.0088  1.00268275  5240"}}, "geometry": {"type": "Point", "coordinates": [-14.89856963349798, -8.47707605396628]}}, {"type": "Feature", "properties": {"norad_id": 29522, "name": "DMSP 5D-3 F17 (USA 191)", "group": "weather", "lat": 77.06635310381124, "lon": -35.40627302677837, "alt_km": 836.6025793331319, "timestamp": "2025-12-27T13:34:48.932551+00:00", "meta": {"OBJECT_NAME": "DMSP 5D-3 F17 (USA 191)", "OBJECT_ID": "2006-050A", "EPOCH": "2025-12-27T06:24:44.569728", "MEAN_MOTION": 14.14925902, "ECCENTRICITY": 0.00100466, "INCLINATION": 98.7393, "RA_OF_ASC_NODE": 6.3537, "ARG_OF_PERICENTER": 181.8113, "MEAN_ANOMALY": 178.3025, "EPHEMERIS_TYPE": 0, "CLASSIFICATION_TYPE": "U", "NORAD_CAT_ID": 29522, "ELEMENT_SET_NO": 999, "REV_AT_EPOCH": 98810, "BSTAR": 0.00012962412, "MEAN_MOTION_DOT": 2.07e-06, "MEAN_MOTION_DDOT": 0}, "tle": {"line1": "1 29522U 06050A   25361.26718252  .00000207  00000+0  12962-3 0  9992", "line2": "2 29522  98.7393   6.3537 0010046 181.8113 178.3025 14.14925902988108"}}, "geometry": {"type": "Point", "coordinates": [-35.40627302677837, 77.06635310381124]}}, {"type": "Feature", "properties": {"norad_id": 32958, "name": "FENGYUN 3A", "group": "weather", "lat": 38.81857790331041, "lon": -66.27096996904818, "alt_km": 828.0298284956416, "timestamp": "2025-12-27T13:34:48.932565+00:00", "meta": {"OBJECT_NAME": "FENGYUN 3A", "OBJECT_ID": "2008-026A", "EPOCH": "2025-12-27T06:37:43.272192", "MEAN_MOTION": 14.19519236, "ECCENTRICITY": 0.00076152, "INCLINATION": 98.6715, "RA_OF_ASC_NODE": 300.4982, "ARG_OF_PERICENTER": 263.0769, "MEAN_ANOMALY": 96.9541, "EPHEMERIS_TYPE": 0, "CLASSIFICATION_TYPE": "U", "NORAD_CAT_ID": 32958, "ELEMENT_SET_NO": 999, "REV_AT_EPOCH": 91101, "BSTAR": 8.6501894e-05, "MEAN_MOTION_DOT": 1.39e-06, "MEAN_MOTION_DDOT": 0}, "tle": {"line1": "1 32958U 08026A   25361.27619528  .00000139  00000+0  86502-4 0  9997", "line2": "2 32958  98.6715 300.4982 0007615 263.0769  96.9541 14.19519236911010"}}, "geometry": {"type": "Point", "coordinates": [-66.27096996904818, 38.81857790331041]}}, {"type": "Feature", "properties": {"norad_id": 35491, "name": "GOES 14", "group": "weather", "lat": 1.2370038401437817, "lon": -179.10816438927128, "alt_km": 35835.48404152648, "timestamp": "2025-12-27T13:34:48.932580+00:00", "meta": {"OBJECT_NAME": "GOES 14", "OBJECT_ID": "2009-033A", "EPOCH": "2025-12-27T05:35:17.915136", "MEAN_MOTION": 1.00097099, "ECCENTRICITY": 7.994e-05, "INCLINATION": 1.2395, "RA_OF_ASC_NODE": 85.2517, "ARG_OF_PERICENTER": 194.7564, "MEAN_ANOMALY": 140.8993, "EPHEMERIS_TYPE": 0, "CLASSIFICATION_TYPE": "U", "NORAD_CAT_ID": 35491, "ELEMENT_SET_NO": 999, "REV_AT_EPOCH": 486, "BSTAR": 0, "MEAN_MOTION_DOT": 4.6e-07, "MEAN_MOTION_DDOT": 0}, "tle": {"line1": "1 35491U 09033A   25361.23284624  .00000046  00000+0  00000+0 0  9993", "line2": "2 35491   1.2395  85.2517 0000799 194.7564 140.8993  1.00097099  4860"}}, "geometry": {"type": "Point", "coordinates": [-179.10816438927128, 1.2370038401437817]}}, {"type": "Feature", "properties": {"norad_id": 35951, "name": "DMSP 5D-3 F18 (USA 210)", "group": "weather", "lat": -58.805798635631135, "lon": -7.133791983254131, "alt_km": 849.1519614029139, "timestamp": "2025-12-27T13:34:48.932592+00:00", "meta": {"OBJECT_NAME": "DMSP 5D-3 F18 (USA 210)", "OBJECT_ID": "2009-057A", "EPOCH": "2025-12-27T05:22:34.674816", "MEAN_MOTION": 14.14778934, "ECCENTRICITY": 0.0011614, "INCLINATION": 98.8852, "RA_OF_ASC_NODE": 337.5535, "ARG_OF_PERICENTER": 24.3635, "MEAN_ANOMALY": 335.8085, "EPHEMERIS_TYPE": 0, "CLASSIFICATION_TYPE": "U", "NORAD_CAT_ID": 35951, "ELEMENT_SET_NO": 999, "REV_AT_EPOCH": 83527, "BSTAR": 0.00019118949, "MEAN_MOTION_DOT": 3.24e-06, "MEAN_MOTION_DDOT": 0}, "tle": {"line1": "1 35951U 09057A   25361.22401244  .00000324  00000+0  19119-3 0  9992", "line2": "2 35951  98.8852 337.5535 0011614  24.3635 335.8085 14.14778934835277"}}, "geometry": {"type": "Point", "coordinates": [-7.133791983254131, -58.805798635631135]}}, {"type": "Feature", "properties": {"norad_id": 36411, "name": "EWS-G2 (GOES 15)", "group": "weather", "lat": -0.8468815343973299, "lon": 1.402887752673844, "alt_km": 35788.33313127221, "timestamp": "2025-12-27T13:34:48.932606+00:00", "meta": {"OBJECT_NAME": "EWS-G2 (GOES 15)", "OBJECT_ID": "2010-008A", "EPOCH": "2025-12-27T04:44:00.328992", "MEAN_MOTION": 1.00270991, "ECCENTRICITY": 0.00056793, "INCLINATION": 0.8475, "RA_OF_ASC_NODE": 86.0592, "ARG_OF_PERICENTER": 180.6109, "MEAN_ANOMALY": 321.6086, "EPHEMERIS_TYPE": 0, "CLASSIFICATION_TYPE": "U", "NORAD_CAT_ID": 36411, "ELEMENT_SET_NO": 999, "REV_AT_EPOCH": 5791, "BSTAR": 0, "MEAN_MOTION_DOT": 6e-07, "MEAN_MOTION_DDOT": 0}, "tle": {"line1": "1 36411U 10008A   25361.19722603  .00000060  00000+0  00000+0 0  9995", "line2": "2 36411   0.8475  86.0592 0005679 180.6109 321.6086  1.00270991 57910"}}, "geometry": {"type": "Point", "coordinates": [1.402887752673844, -0.8468815343973299]}}, {"type": "Feature", "properties": {"norad_id": 36744, "name": "COMS 1", "group": "weather", "lat": -0.7200880554868582, "lon": 68.18292074511267, "alt_km": 35789.67519553809, "timestamp": "2025-12-27T13:34:48.932618+00:00", "meta": {"OBJECT_NAME": "COMS 1", "OBJECT_ID": "2010-032A", "EPOCH": "2025-12-25T12:42:15.782976", "MEAN_MOTION": 1.00270082, "ECCENTRICITY": 8.877e-05, "INCLINATION": 4.3689, "RA_OF_ASC_NODE": 77.8525, "ARG_OF_PERICENTER": 213.8569, "MEAN_ANOMALY": 121.3153, "EPHEMERIS_TYPE": 0, "CLASSIFICATION_TYPE": "U", "NORAD_CAT_ID": 36744, "ELEMENT_SET_NO": 999, "REV_AT_EPOCH": 4934, "BSTAR": 0, "MEAN_MOTION_DOT": -3.24e-06, "MEAN_MOTION_DDOT": 0}, "tle": {"line1": "1 36744U 10032A   25359.52934934 -.00000324  00000+0  00000+0 0  9991", "line2": "2 36744   4.3689  77.8525 0000887 213.8569 121.3153  1.00270082 49343"}}, "geometry": {"type": "Point", "coordinates": [68.18292074511267, -0.7200880554868582]}}, {"type": "Feature", "properties": {"norad_id": 37214, "name": "FENGYUN 3B", "group": "weather", "lat": -80.03129312001836, "lon": 157.41444948709488, "alt_km": 840.2555500879234, "timestamp": "2025-12-27T13:34:48.932631+00:00", "meta": {"OBJECT_NAME": "FENGYUN 3B", "OBJECT_ID": "2010-059A", "EPOCH": "2025-12-27T07:32:08.155392", "MEAN_MOTION": 14.14794796, "ECCENTRICITY": 0.00214161, "INCLINATION": 98.9888, "RA_OF_ASC_NODE": 41.3915, "ARG_OF_PERICENTER": 315.857, "MEAN_ANOMALY": 107.9236, "EPHEMERIS_TYPE": 0, "CLASSIFICATION_TYPE": "U", "NORAD_CAT_ID": 37214, "ELEMENT_SET_NO": 999, "REV_AT_EPOCH": 78312, "BSTAR": 0.00015153557, "MEAN_MOTION_DOT": 2.47e-06, "MEAN_MOTION_DDOT": 0}, "tle": {"line1": "1 37214U 10059A   25361.31398328  .00000247  00000+0  15154-3 0  9997", "line2": "2 37214  98.9888  41.3915 0021416 315.8570 107.9236 14.14794796783126"}}, "geometry": {"type": "Point", "coordinates": [157.41444948709488, -80.03129312001836]}}, {"type": "Feature", "properties": {"norad_id": 37849, "name": "SUOMI NPP", "group": "weather", "lat": -1.9057506509425148, "lon": -60.930278409358905, "alt_km": 830.3254564522686, "timestamp": "2025-12-27T13:34:48.932642+00:00", "meta": {"OBJECT_NAME": "SUOMI NPP", "OBJECT_ID": "2011-061A", "EPOCH": "2025-12-26T22:21:51.604992", "MEAN_MOTION": 14.19518423, "ECCENTRICITY": 0.00025484, "INCLINATION": 98.7791, "RA_OF_ASC_NODE": 298.1468, "ARG_OF_PERICENTER": 95.8793, "MEAN_ANOMALY": 264.2673, "EPHEMERIS_TYPE": 0, "CLASSIFICATION_TYPE": "U", "NORAD_CAT_ID": 37849, "ELEMENT_SET_NO": 999, "REV_AT_EPOCH": 73400, "BSTAR": 8.5991589e-05, "MEAN_MOTION_DOT": 1.37e-06, "MEAN_MOTION_DDOT": 0}, "tle": {"line1": "1 37849U 11061A   25360.93184728  .00000137  00000+0  85992-4 0  9995", "line2": "2 37849  98.7791 298.1468 0002548  95.8793 264.2673 14.19518423734004"}}, "geometry": {"type": "Point", "coordinates": [-60.930278409358905, -1.9057506509425148]}}]}